{"type": "FeatureCollection", "features": [ {"type": "Feature", "properties": {"norad_id": 67041, "name": "STARLINK-35765", "group": "last-30-days", "lat": 36.690706125734245, "lon": 177.5004811972814, "alt_km": 313.96426201542727, "timestamp": "2025-12-22T04:03:37.890380+00:00", "meta": {"OBJECT_NAME": "STARLINK-35765", "OBJECT_ID": "2025-294M", "EPOCH": "2025-12-21T20:00:01.999008", "MEAN_MOTION": 15.8534655, "ECCENTRICITY": 0.0001409, "INCLINATION": 42.9999, "RA_OF_ASC_NODE": 126.4719, "ARG_OF_PERICENTER": 282.2847, "MEAN_ANOMALY": 20.736, "EPHEMERIS_TYPE": 0, "CLASSIFICATION_TYPE": "U", "NORAD_CAT_ID": 67041, "ELEMENT_SET_NO": 999, "REV_AT_EPOCH": 157, "BSTAR": -0.008402, "MEAN_MOTION_DOT": -0.01785324, "MEAN_MOTION_DDOT": 0}, "tle": {"line1": "1 67041U 25294M   25355.83335647 -.01785324  00000+0 -84020-2 0  9996", "line2": "2 67041  42.9999 126.4719 0001409 282.2847  20.7360 15.85346550  1572"}}, "geometry": {"type": "Point", "coordinates": [177.5004811972814, 36.690706125734245]}}, {"type": "Feature", "properties": {"norad_id": 67042, "name": "STARLINK-35773", "group": "last-30-days", "lat": 37.579050633591876, "lon": -179.92896522956914, "alt_km": 314.06393833572747, "timestamp": "2025-12-22T04:03:37.890390+00:00", "meta": {"OBJECT_NAME": "STARLINK-35773", "OBJECT_ID": "2025-294N", "EPOCH": "2025-12-21T20:00:01.999008", "MEAN_MOTION": 15.85344305, "ECCENTRICITY": 0.0001622, "INCLINATION": 42.9999, "RA_OF_ASC_NODE": 126.4663, "ARG_OF_PERICENTER": 279.42, "MEAN_ANOMALY": 25.8448, "EPHEMERIS_TYPE": 0, "CLASSIFICATION_TYPE": "U", "NORAD_CAT_ID": 67042, "ELEMENT_SET_NO": 999, "REV_AT_EPOCH": 176, "BSTAR": -0.0084746, "MEAN_MOTION_DOT": -0.0183834, "MEAN_MOTION_DDOT": 0}, "tle": {"line1": "1 67042U 25294N   25355.83335647 -.01838340  00000+0 -84746-2 0  9999", "line2": "2 67042  42.9999 126.4663 0001622 279.4200  25.8448 15.85344305  1769"}}, "geometry": {"type": "Point", "coordinates": [-179.92896522956914, 37.579050633591876]}}, {"type": "Feature", "properties": {"norad_id": 67043, "name": "STARLINK-35901", "group": "last-30-days", "lat": 38.40068232326253, "lon": -177.3296636733195, "alt_km": 313.92656286227793, "timestamp": "2025-12-22T04:03:37.890399+00:00", "meta": {"OBJECT_NAME": "STARLINK-35901", "OBJECT_ID": "2025-294P", "EPOCH": "2025-12-21T20:00:01.999008", "MEAN_MOTION": 15.85338349, "ECCENTRICITY": 0.0001421, "INCLINATION": 43, "RA_OF_ASC_NODE": 126.4609, "ARG_OF_PERICENTER": 275.588, "MEAN_ANOMALY": 31.8958, "EPHEMERIS_TYPE": 0, "CLASSIFICATION_TYPE": "U", "NORAD_CAT_ID": 67043, "ELEMENT_SET_NO": 999, "REV_AT_EPOCH": 176, "BSTAR": -0.0084812, "MEAN_MOTION_DOT": -0.01838932, "MEAN_MOTION_DDOT": 0}, "tle": {"line1": "1 67043U 25294P   25355.83335647 -.01838932  00000+0 -84812-2 0  9991", "line2": "2 67043  43.0000 126.4609 0001421 275.5880  31.8958 15.85338349  1767"}}, "geometry": {"type": "Point", "coordinates": [-177.3296636733195, 38.40068232326253]}}, {"type": "Feature", "properties": {"norad_id": 67044, "name": "STARLINK-35884", "group": "last-30-days", "lat": 39.14433341265972, "lon": -174.7434963320386, "alt_km": 313.9028333808701, "timestamp": "2025-12-22T04:03:37.890413+00:00", "meta": {"OBJECT_NAME": "STARLINK-35884", "OBJECT_ID": "2025-294Q", "EPOCH": "2025-12-21T20:00:01.999008", "MEAN_MOTION": 15.85335519, "ECCENTRICITY": 0.000159, "INCLINATION": 43.0003, "RA_OF_ASC_NODE": 126.4553, "ARG_OF_PERICENTER": 279.6356, "MEAN_ANOMALY": 30.0039, "EPHEMERIS_TYPE": 0, "CLASSIFICATION_TYPE": "U", "NORAD_CAT_ID": 67044, "ELEMENT_SET_NO": 999, "REV_AT_EPOCH": 176, "BSTAR": -0.0085225, "MEAN_MOTION_DOT": -0.01846726, "MEAN_MOTION_DDOT": 0}, "tle": {"line1": "1 67044U 25294Q   25355.83335647 -.01846726  00000+0 -85225-2 0  9991", "line2": "2 67044  43.0003 126.4553 0001590 279.6356  30.0039 15.85335519  1766"}}, "geometry": {"type": "Point", "coordinates": [-174.7434963320386, 39.14433341265972]}}, {"type": "Feature", "properties": {"norad_id": 67045, "name": "STARLINK-35891", "group": "last-30-days", "lat": 39.94320559099474, "lon": -171.63416949882935, "alt_km": 313.8481575681608, "timestamp": "2025-12-22T04:03:37.890425+00:00", "meta": {"OBJECT_NAME": "STARLINK-35891", "OBJECT_ID": "2025-294R", "EPOCH": "2025-12-21T20:00:01.999008", "MEAN_MOTION": 15.85296735, "ECCENTRICITY": 0.0001398, "INCLINATION": 43.0001, "RA_OF_ASC_NODE": 126.4487, "ARG_OF_PERICENTER": 271.7993, "MEAN_ANOMALY": 40.4086, "EPHEMERIS_TYPE": 0, "CLASSIFICATION_TYPE": "U", "NORAD_CAT_ID": 67045, "ELEMENT_SET_NO": 999, "REV_AT_EPOCH": 168, "BSTAR": -0.0084148, "MEAN_MOTION_DOT": -0.01783907, "MEAN_MOTION_DDOT": 0}, "tle": {"line1": "1 67045U 25294R   25355.83335647 -.01783907  00000+0 -84148-2 0  9996", "line2": "2 67045  43.0001 126.4487 0001398 271.7993  40.4086 15.85296735  1681"}}, "geometry": {"type": "Point", "coordinates": [-171.63416949882935, 39.94320559099474]}}, {"type": "Feature", "properties": {"norad_id": 67046, "name": "STARLINK-35721", "group": "last-30-days", "lat": 40.59716791867563, "lon": -168.74084853363112, "alt_km": 313.76684075425874, "timestamp": "2025-12-22T04:03:37.890436+00:00", "meta": {"OBJECT_NAME": "STARLINK-35721", "OBJECT_ID": "2025-294S", "EPOCH": "2025-12-21T20:00:01.999008", "MEAN_MOTION": 15.85280702, "ECCENTRICITY": 0.000134, "INCLINATION": 43.0003, "RA_OF_ASC_NODE": 126.4429, "ARG_OF_PERICENTER": 270.7139, "MEAN_ANOMALY": 43.8146, "EPHEMERIS_TYPE": 0, "CLASSIFICATION_TYPE": "U", "NORAD_CAT_ID": 67046, "ELEMENT_SET_NO": 999, "REV_AT_EPOCH": 176, "BSTAR": -0.0083832, "MEAN_MOTION_DOT": -0.01776936, "MEAN_MOTION_DDOT": 0}, "tle": {"line1": "1 67046U 25294S   25355.83335647 -.01776936  00000+0 -83832-2 0  9990", "line2": "2 67046  43.0003 126.4429 0001340 270.7139  43.8146 15.85280702  1768"}}, "geometry": {"type": "Point", "coordinates": [-168.74084853363112, 40.59716791867563]}}, {"type": "Feature", "properties": {"norad_id": 67047, "name": "STARLINK-35779", "group": "last-30-days", "lat": 41.23145091444362, "lon": -165.49155296402066, "alt_km": 313.72516581885793, "timestamp": "2025-12-22T04:03:37.890445+00:00", "meta": {"OBJECT_NAME": "STARLINK-35779", "OBJECT_ID": "2025-294T", "EPOCH": "2025-12-21T20:00:01.999008", "MEAN_MOTION": 15.85273085, "ECCENTRICITY": 0.0001396, "INCLINATION": 43.0001, "RA_OF_ASC_NODE": 126.4368, "ARG_OF_PERICENTER": 277.2809, "MEAN_ANOMALY": 39.8014, "EPHEMERIS_TYPE": 0, "CLASSIFICATION_TYPE": "U", "NORAD_CAT_ID": 67047, "ELEMENT_SET_NO": 999, "REV_AT_EPOCH": 157, "BSTAR": -0.0084867, "MEAN_MOTION_DOT": -0.01834808, "MEAN_MOTION_DDOT": 0}, "tle": {"line1": "1 67047U 25294T   25355.83335647 -.01834808  00000+0 -84867-2 0  9993", "line2": "2 67047  43.0001 126.4368 0001396 277.2809  39.8014 15.85273085  1570"}}, "geometry": {"type": "Point", "coordinates": [-165.49155296402066, 41.23145091444362]}}, {"type": "Feature", "properties": {"norad_id": 67048, "name": "STARLINK-35905", "group": "last-30-days", "lat": 41.66217664580229, "lon": -162.91494173845567, "alt_km": 313.64155216121344, "timestamp": "2025-12-22T04:03:37.890455+00:00", "meta": {"OBJECT_NAME": "STARLINK-35905", "OBJECT_ID": "2025-294U", "EPOCH": "2025-12-21T20:00:01.999008", "MEAN_MOTION": 15.85275465, "ECCENTRICITY": 0.0001337, "INCLINATION": 43.0004, "RA_OF_ASC_NODE": 126.4317, "ARG_OF_PERICENTER": 278.4857, "MEAN_ANOMALY": 40.5788, "EPHEMERIS_TYPE": 0, "CLASSIFICATION_TYPE": "U", "NORAD_CAT_ID": 67048, "ELEMENT_SET_NO": 999, "REV_AT_EPOCH": 168, "BSTAR": -0.0085373, "MEAN_MOTION_DOT": -0.01844518, "MEAN_MOTION_DDOT": 0}, "tle": {"line1": "1 67048U 25294U   25355.83335647 -.01844518  00000+0 -85373-2 0  9996", "line2": "2 67048  43.0004 126.4317 0001337 278.4857  40.5788 15.85275465  1682"}}, "geometry": {"type": "Point", "coordinates": [-162.91494173845567, 41.66217664580229]}}, {"type": "Feature", "properties": {"norad_id": 67049, "name": "STARLINK-35877", "group": "last-30-days", "lat": 42.10948442547582, "lon": -159.71609483183795, "alt_km": 313.6639974525642, "timestamp": "2025-12-22T04:03:37.890465+00:00", "meta": {"OBJECT_NAME": "STARLINK-35877", "OBJECT_ID": "2025-294V", "EPOCH": "2025-12-21T20:00:01.999008", "MEAN_MOTION": 15.85237743, "ECCENTRICITY": 0.0001379, "INCLINATION": 43.0005, "RA_OF_ASC_NODE": 126.4256, "ARG_OF_PERICENTER": 276.5638, "MEAN_ANOMALY": 44.9539, "EPHEMERIS_TYPE": 0, "CLASSIFICATION_TYPE": "U", "NORAD_CAT_ID": 67049, "ELEMENT_SET_NO": 999, "REV_AT_EPOCH": 177, "BSTAR": -0.0083649, "MEAN_MOTION_DOT": -0.01770449, "MEAN_MOTION_DDOT": 0}, "tle": {"line1": "1 67049U 25294V   25355.83335647 -.01770449  00000+0 -83649-2 0  9992", "line2": "2 67049  43.0005 126.4256 0001379 276.5638  44.9539 15.85237743  1777"}}, "geometry": {"type": "Point", "coordinates": [-159.71609483183795, 42.10948442547582]}}, {"type": "Feature", "properties": {"norad_id": 67050, "name": "STARLINK-36078", "group": "last-30-days", "lat": 42.47023580444583, "lon": -156.4333830481596, "alt_km": 313.76828221568667, "timestamp": "2025-12-22T04:03:37.890474+00:00", "meta": {"OBJECT_NAME": "STARLINK-36078", "OBJECT_ID": "2025-294W", "EPOCH": "2025-12-21T20:00:01.999008", "MEAN_MOTION": 15.85228092, "ECCENTRICITY": 0.0001538, "INCLINATION": 43.0003, "RA_OF_ASC_NODE": 126.4194, "ARG_OF_PERICENTER": 278.7155, "MEAN_ANOMALY": 45.2751, "EPHEMERIS_TYPE": 0, "CLASSIFICATION_TYPE": "U", "NORAD_CAT_ID": 67050, "ELEMENT_SET_NO": 999, "REV_AT_EPOCH": 168, "BSTAR": -0.00843, "MEAN_MOTION_DOT": -0.0178167, "MEAN_MOTION_DDOT": 0}, "tle": {"line1": "1 67050U 25294W   25355.83335647 -.01781670  00000+0 -84300-2 0  9997", "line2": "2 67050  43.0003 126.4194 0001538 278.7155  45.2751 15.85228092  1680"}}, "geometry": {"type": "Point", "coordinates": [-156.4333830481596, 42.47023580444583]}}]}